SL-16 R/B               
1 25400U 98043G   26049.85762588  .00000060  00000+0  44028-4 0  9992
2 25400  98.8223   3.0914 0010920  70.8978 289.3383 14.26045092436308
SL-16 R/B               
1 25407U 98045B   26049.85541528  .00000202  00000+0  12606-3 0  9994
2 25407  71.0093 221.1803 0005793  41.1561 318.9998 14.16190227424436
ISS (ZARYA)             
1 25544U 98067A   26049.79608032  .00009878  00000+0  18896-3 0  9992
2 25544  51.6323 165.7431 0010935 112.1599 248.0551 15.48691264553403
CZ-4B R/B               
1 25732U 99025C   26049.76885413  .00000046  00000+0  43088-4 0  9993
2 25732  98.6666  94.4951 0037761  40.7556  73.4973 14.18261425385480
OKEAN-O                 
1 25860U 99039A   26049.72561141  .00000658  00000+0  93258-4 0  9998
2 25860  97.9485 109.8060 0001737  79.3842 280.7565 14.80303208431583
SL-16 R/B               
1 25861U 99039B   26049.72338146  .00000539  00000+0  75258-4 0  9994
2 25861  98.0009 108.8442 0013893 323.2792  36.7468 14.81703533434054
DELTA 2 R/B             
1 25876U 99041E   26049.32753174  .00001756  00000+0  32001-3 0  9991
2 25876  51.7660  18.6034 0502219 291.2482  63.5526 14.11764612360294
HELIOS 1B               
1 25977U 99064A   26049.67902823  .00001772  00000+0  20139-3 0  9990
2 25977  98.1717 311.3620 0002321 100.8964 259.2512 14.87615301682432
TERRA                   
1 25994U 99068A   26049.88616090  .00000400  00000+0  90586-4 0  9995
2 25994  97.9634 104.0354 0001362 207.7559 238.8894 14.60993221392332
SL-16 R/B               
1 26070U 00006B   26049.65396100 -.00000071  00000+0 -12009-4 0  9997
2 26070  71.0022 137.8634 0017940 216.8164 143.1728 14.15818324345869
TITAN 4B R/B            
1 26474U 00047B   26049.87806137  .00002758  00000+0  17791-3 0  9994
2 26474  67.9878  93.4024 0037375  58.2193 302.2587 15.09388198390073
ENVISAT                 
1 27386U 02009A   26049.83717852  .00000112  00000+0  50186-4 0  9996
2 27386  98.3697   3.8873 0001357  87.4597 326.6012 14.39029472256469
